GSAT0101 (GALILEO-PFM)  
1 37846U 11060A   25034.25104257 -.00000082  00000+0  00000+0 0  9995
2 37846  57.1156 355.2820 0003759 340.5097  19.4676  1.70475572 82610
GSAT0102 (GALILEO-FM2)  
1 37847U 11060B   25029.77989308 -.00000072  00000+0  00000+0 0  9994
2 37847  57.1155 355.4031 0004963 318.9579 222.2691  1.70475793 82546
GSAT0103 (GALILEO-FM3)  
1 38857U 12055A   25034.29070730 -.00000005  00000+0  00000+0 0  9990
2 38857  55.5164 115.2515 0004530 268.6770  91.3198  1.70473345 76500
GSAT0201 (GALILEO 5)    
1 40128U 14050A   25031.61956810 -.00000030  00000+0  00000+0 0  9994
2 40128  49.4174 293.8566 1618919 160.0324 207.1520  1.85519522 70952
GSAT0202 (GALILEO 6)    
1 40129U 14050B   25034.03291461 -.00000044  00000+0  00000+0 0  9993
2 40129  49.4305 292.8387 1618574 160.9208 205.9551  1.85520263 71221
GSAT0203 (GALILEO 7)    
1 40544U 15017A   25033.44321066 -.00000080  00000+0  00000+0 0  9997
2 40544  56.9090 355.2065 0005642 283.6565  76.2722  1.70475466 60682
GSAT0204 (GALILEO 8)    
1 40545U 15017B   25034.28456529 -.00000083  00000+0  00000+0 0  9997
2 40545  56.9169 355.2000 0005051 275.1036  84.8307  1.70475290 23747
GSAT0205 (GALILEO 9)    
1 40889U 15045A   25034.05318695  .00000074  00000+0  00000+0 0  9994
2 40889  55.1194 235.3901 0006365  46.0333 314.0448  1.70473326 58503
GSAT0206 (GALILEO 10)   
1 40890U 15045B   25031.92747824  .00000079  00000+0  00000+0 0  9994
2 40890  55.1200 235.4444 0004309  46.8601 313.2115  1.70473369 58495
GSAT0209 (GALILEO 12)   
1 41174U 15079A   25033.85606084 -.00000002  00000+0  00000+0 0  9990
2 41174  55.5354 114.9749 0003546 312.5335  47.4873  1.70474623 56267
GSAT0208 (GALILEO 11)   
1 41175U 15079B   25032.31623125  .00000005  00000+0  00000+0 0  9998
2 41175  55.5334 115.0150 0004416 295.7720  64.2345  1.70474473 56658
GSAT0211 (GALILEO 14)   
1 41549U 16030A   25034.19955793  .00000074  00000+0  00000+0 0  9994
2 41549  55.2698 235.4174 0003850  25.7248 334.3198  1.70473337 54162
GSAT0210 (GALILEO 13)   
1 41550U 16030B   25034.45738056  .00000075  00000+0  00000+0 0  9997
2 41550  55.2667 235.4088 0000797 155.5332 204.4957  1.70473623 54165
GSAT0207 (GALILEO 15)   
1 41859U 16069A   25033.56295564  .00000000  00000+0  00000+0 0  9992
2 41859  55.2018 114.9283 0003606 295.7841  64.2299  1.70474636 51106
GSAT0212 (GALILEO 16)   
1 41860U 16069B   25034.59014123 -.00000008  00000+0  00000+0 0  9997
2 41860  55.2001 114.8957 0002431 326.6433  33.3892  1.70474727 51155
GSAT0213 (GALILEO 17)   
1 41861U 16069C   25020.29378988 -.00000014  00000+0  00000+0 0  9999
2 41861  55.1958 115.2998 0003789 273.5365  86.4371  1.70475196 50901
GSAT0214 (GALILEO 18)   
1 41862U 16069D   25033.93065234 -.00000003  00000+0  00000+0 0  9990
2 41862  55.2010 114.9148 0002481 271.3178  88.7039  1.70475023 51132
GSAT0215 (GALILEO 19)   
1 43055U 17079A   25032.66102683  .00000076  00000+0  00000+0 0  9996
2 43055  55.2449 235.2787 0001087  28.7205 331.3161  1.70474070 44457
GSAT0216 (GALILEO 20)   
1 43056U 17079B   25031.19281464  .00000083  00000+0  00000+0 0  9997
2 43056  55.2459 235.3192 0001817 332.6295  27.4020  1.70474249 44441
GSAT0217 (GALILEO 21)   
1 43057U 17079C   25031.99995548  .00000079  00000+0  00000+0 0  9996
2 43057  55.2430 235.2953 0002466   0.2686 359.7664  1.70474157 44441
GSAT0218 (GALILEO 22)   
1 43058U 17079D   25033.39315056  .00000075  00000+0  00000+0 0  9999
2 43058  55.2436 235.2545 0001919 316.4867  43.5253  1.70474143 44492
GSAT0221 (GALILEO 25)   
1 43564U 18060A   25032.12122477 -.00000076  00000+0  00000+0 0  9997
2 43564  57.2909 355.3006 0006217 293.8501  66.0748  1.70475382 40622
GSAT0222 (GALILEO 26)   
1 43565U 18060B   25034.09984423 -.00000081  00000+0  00000+0 0  9999
2 43565  57.2942 355.2497 0005008 275.7330  84.2016  1.70475063 40704
GSAT0219 (GALILEO 23)   
1 43566U 18060C   25033.14821582 -.00000078  00000+0  00000+0 0  9997
2 43566  57.2937 355.2770 0005520 301.9902  57.9472  1.70475321 40664
GSAT0220 (GALILEO 24)   
1 43567U 18060D   25034.54217049 -.00000083  00000+0  00000+0 0  9996
2 43567  57.2922 355.2397 0005624 296.7762  63.1580  1.70475049 40671
GSAT0223 (GALILEO 27)   
1 49809U 21116A   25033.51298612 -.00000079  00000+0  00000+0 0  9993
2 49809  57.2872 355.1603 0003285 268.7740 270.1070  1.70475195 19666
GSAT0224 (GALILEO 28)   
1 49810U 21116B   25033.91271185 -.00000081  00000+0  00000+0 0  9998
2 49810  57.2841 355.1482 0002709 277.8010 258.9357  1.70475182 19680
GSAT0225 (GALILEO 29)   
1 59598U 24079A   25033.63505318 -.00000001  00000+0  00000+0 0  9992
2 59598  54.8189 115.0576 0002695 207.4780 150.3082  1.70475021  4794
GSAT0227 (GALILEO 30)   
1 59600U 24079C   25033.82208187 -.00000002  00000+0  00000+0 0  9992
2 59600  54.8142 115.0522 0001615 141.4902 218.5713  1.70474959  4856
GSAT0232 (GALILEO 32)   
1 61182U 24167A   25034.40254126  .00000075  00000+0  00000+0 0  9996
2 61182  55.3540 234.9972 0001922 172.0005  19.6678  1.70473452  2379
GSAT0226 (GALILEO 31)   
1 61183U 24167B   25034.26656354  .00000075  00000+0  00000+0 0  9990
2 61183  55.3527 235.0067 0002078 106.1493 114.6088  1.70473569  2341
